ONEWEB-0704             
1 61609U 24188R   25212.59702376  .00000512  00000+0  14291-2 0  9992
2 61609  87.8822 100.1433 0001439  44.0473 316.0769 13.10374498 41300
ONEWEB-0705             
1 61610U 24188S   25212.60200216  .00000663  00000+0  18617-2 0  9995
2 61610  87.8793 100.1850 0000581  84.4264 275.6930 13.10372312 33477
ONEWEB-0706             
1 61611U 24188T   25212.73971662  .00000265  00000+0  72326-3 0  9996
2 61611  87.8806 100.1845 0001460  69.2277 290.9006 13.10376544 39526
ONEWEB-0707             
1 61612U 24188U   25212.59372058  .00000547  00000+0  15295-2 0  9999
2 61612  87.8799 100.1794 0001397  60.2746 299.8520 13.10376542 41331
ONEWEB-0708             
1 61613U 24188V   25212.61195986  .00000282  00000+0  77231-3 0  9991
2 61613  87.8837 100.2055 0001015  72.8425 287.2814 13.10370408 41316
