[{"OBJECT_NAME":"ONEWEB-0704","OBJECT_ID":"2024-188R","EPOCH":"2025-07-31T14:19:42.852864","MEAN_MOTION":13.10374498,"ECCENTRICITY":0.0001439,"INCLINATION":87.8822,"RA_OF_ASC_NODE":100.1433,"ARG_OF_PERICENTER":44.0473,"MEAN_ANOMALY":316.0769,"EPHEMERIS_TYPE":0,"CLASSIFICATION_TYPE":"U","NORAD_CAT_ID":61609,"ELEMENT_SET_NO":999,"REV_AT_EPOCH":4130,"BSTAR":0.0014291,"MEAN_MOTION_DOT":5.12e-6,"MEAN_MOTION_DDOT":0},{"OBJECT_NAME":"ONEWEB-0705","OBJECT_ID":"2024-188S","EPOCH":"2025-07-31T14:26:52.986624","MEAN_MOTION":13.10372312,"ECCENTRICITY":5.81e-5,"INCLINATION":87.8793,"RA_OF_ASC_NODE":100.185,"ARG_OF_PERICENTER":84.4264,"MEAN_ANOMALY":275.693,"EPHEMERIS_TYPE":0,"CLASSIFICATION_TYPE":"U","NORAD_CAT_ID":61610,"ELEMENT_SET_NO":999,"REV_AT_EPOCH":3347,"BSTAR":0.0018617,"MEAN_MOTION_DOT":6.63e-6,"MEAN_MOTION_DDOT":0},{"OBJECT_NAME":"ONEWEB-0706","OBJECT_ID":"2024-188T","EPOCH":"2025-07-31T17:45:11.515968","MEAN_MOTION":13.10376544,"ECCENTRICITY":0.000146,"INCLINATION":87.8806,"RA_OF_ASC_NODE":100.1845,"ARG_OF_PERICENTER":69.2277,"MEAN_ANOMALY":290.9006,"EPHEMERIS_TYPE":0,"CLASSIFICATION_TYPE":"U","NORAD_CAT_ID":61611,"ELEMENT_SET_NO":999,"REV_AT_EPOCH":3952,"BSTAR":0.00072326,"MEAN_MOTION_DOT":2.65e-6,"MEAN_MOTION_DDOT":0},{"OBJECT_NAME":"ONEWEB-0707","OBJECT_ID":"2024-188U","EPOCH":"2025-07-31T14:14:57.458112","MEAN_MOTION":13.10376542,"ECCENTRICITY":0.0001397,"INCLINATION":87.8799,"RA_OF_ASC_NODE":100.1794,"ARG_OF_PERICENTER":60.2746,"MEAN_ANOMALY":299.852,"EPHEMERIS_TYPE":0,"CLASSIFICATION_TYPE":"U","NORAD_CAT_ID":61612,"ELEMENT_SET_NO":999,"REV_AT_EPOCH":4133,"BSTAR":0.0015295,"MEAN_MOTION_DOT":5.47e-6,"MEAN_MOTION_DDOT":0},{"OBJECT_NAME":"ONEWEB-0708","OBJECT_ID":"2024-188V","EPOCH":"2025-07-31T14:41:13.331904","MEAN_MOTION":13.10370408,"ECCENTRICITY":0.0001015,"INCLINATION":87.8837,"RA_OF_ASC_NODE":100.2055,"ARG_OF_PERICENTER":72.8425,"MEAN_ANOMALY":287.2814,"EPHEMERIS_TYPE":0,"CLASSIFICATION_TYPE":"U","NORAD_CAT_ID":61613,"ELEMENT_SET_NO":999,"REV_AT_EPOCH":4131,"BSTAR":0.00077231,"MEAN_MOTION_DOT":2.82e-6,"MEAN_MOTION_DDOT":0}]
